[{"OBJECT_NAME":"STARLINK-2533","OBJECT_ID":"2021-036U","EPOCH":"2026-03-09T07:36:01.618560","MEAN_MOTION":15.3019536,"ECCENTRICITY":0.00011709,"INCLINATION":53.1612,"RA_OF_ASC_NODE":76.9993,"ARG_OF_PERICENTER":119.6807,"MEAN_ANOMALY":240.431,"EPHEMERIS_TYPE":0,"CLASSIFICATION_TYPE":"U","NORAD_CAT_ID":48294,"ELEMENT_SET_NO":999,"REV_AT_EPOCH":26835,"BSTAR":-4.499489e-5,"MEAN_MOTION_DOT":-1.691e-5,"MEAN_MOTION_DDOT":0},{"OBJECT_NAME":"CONTINUUM-1","OBJECT_ID":"2023-001AN","EPOCH":"2026-03-09T23:17:35.458656","MEAN_MOTION":15.27981258,"ECCENTRICITY":0.00109493,"INCLINATION":97.3456,"RA_OF_ASC_NODE":133.3964,"ARG_OF_PERICENTER":60.1976,"MEAN_ANOMALY":300.0351,"EPHEMERIS_TYPE":0,"CLASSIFICATION_TYPE":"U","NORAD_CAT_ID":55045,"ELEMENT_SET_NO":999,"REV_AT_EPOCH":17709,"BSTAR":0.00052859897,"MEAN_MOTION_DOT":0.00014395,"MEAN_MOTION_DDOT":0}]
